{"type": "FeatureCollection", "features": [ {"type": "Feature", "properties": {"norad_id": 31056, "name": "FENGYUN 1C DEB", "group": "fengyun-1c-debris", "lat": 46.20554959300104, "lon": -29.134241602155367, "alt_km": 842.4011479641822, "timestamp": "2025-12-23T18:59:32.247467+00:00", "meta": {"OBJECT_NAME": "FENGYUN 1C DEB", "OBJECT_ID": "1999-025BFA", "EPOCH": "2025-12-23T03:46:45.054624", "MEAN_MOTION": 14.14320023, "ECCENTRICITY": 0.00250216, "INCLINATION": 98.6701, "RA_OF_ASC_NODE": 339.4078, "ARG_OF_PERICENTER": 312.751, "MEAN_ANOMALY": 108.319, "EPHEMERIS_TYPE": 0, "CLASSIFICATION_TYPE": "U", "NORAD_CAT_ID": 31056, "ELEMENT_SET_NO": 999, "REV_AT_EPOCH": 96965, "BSTAR": 0.00034080869, "MEAN_MOTION_DOT": 6.1e-06, "MEAN_MOTION_DDOT": 0}, "tle": {"line1": "1 31056U 99025BFA 25357.15746591  .00000610  00000+0  34081-3 0  9995", "line2": "2 31056  98.6701 339.4078 0025021 312.7510 108.3190 14.14320023969658"}}, "geometry": {"type": "Point", "coordinates": [-29.134241602155367, 46.20554959300104]}}, {"type": "Feature", "properties": {"norad_id": 31057, "name": "FENGYUN 1C DEB", "group": "fengyun-1c-debris", "lat": 6.240823635163412, "lon": 37.860690115579565, "alt_km": 715.1488910835278, "timestamp": "2025-12-23T18:59:32.247476+00:00", "meta": {"OBJECT_NAME": "FENGYUN 1C DEB", "OBJECT_ID": "1999-025BFB", "EPOCH": "2025-12-18T22:05:50.245152", "MEAN_MOTION": 14.79471087, "ECCENTRICITY": 0.0137517, "INCLINATION": 99.2565, "RA_OF_ASC_NODE": 33.2779, "ARG_OF_PERICENTER": 232.6273, "MEAN_ANOMALY": 126.2347, "EPHEMERIS_TYPE": 0, "CLASSIFICATION_TYPE": "U", "NORAD_CAT_ID": 31057, "ELEMENT_SET_NO": 999, "REV_AT_EPOCH": 62044, "BSTAR": 0.00071207, "MEAN_MOTION_DOT": 6.17e-05, "MEAN_MOTION_DDOT": 0}, "tle": {"line1": "1 31057U 99025BFB 25352.92072043  .00006170  00000+0  71207-3 0  9998", "line2": "2 31057  99.2565  33.2779 0137517 232.6273 126.2347 14.79471087620443"}}, "geometry": {"type": "Point", "coordinates": [37.860690115579565, 6.240823635163412]}}, {"type": "Feature", "properties": {"norad_id": 31058, "name": "FENGYUN 1C DEB", "group": "fengyun-1c-debris", "lat": 49.12635544539468, "lon": -62.15006937754365, "alt_km": 574.0404787960115, "timestamp": "2025-12-23T18:59:32.247485+00:00", "meta": {"OBJECT_NAME": "FENGYUN 1C DEB", "OBJECT_ID": "1999-025BFC", "EPOCH": "2025-12-21T14:43:24.738528", "MEAN_MOTION": 14.76461843, "ECCENTRICITY": 0.00952203, "INCLINATION": 99.5682, "RA_OF_ASC_NODE": 306.5125, "ARG_OF_PERICENTER": 79.2038, "MEAN_ANOMALY": 281.9867, "EPHEMERIS_TYPE": 0, "CLASSIFICATION_TYPE": "U", "NORAD_CAT_ID": 31058, "ELEMENT_SET_NO": 999, "REV_AT_EPOCH": 99680, "BSTAR": 0.0010269728, "MEAN_MOTION_DOT": 7.633e-05, "MEAN_MOTION_DDOT": 0}, "tle": {"line1": "1 31058U 99025BFC 25355.61348077  .00007633  00000+0  10270-2 0  9998", "line2": "2 31058  99.5682 306.5125 0095220  79.2038 281.9867 14.76461843996804"}}, "geometry": {"type": "Point", "coordinates": [-62.15006937754365, 49.12635544539468]}}, {"type": "Feature", "properties": {"norad_id": 31062, "name": "FENGYUN 1C DEB", "group": "fengyun-1c-debris", "lat": 4.604415443388176, "lon": 0.3009244142746989, "alt_km": 1029.2984017878962, "timestamp": "2025-12-23T18:59:32.247495+00:00", "meta": {"OBJECT_NAME": "FENGYUN 1C DEB", "OBJECT_ID": "1999-025BFG", "EPOCH": "2025-12-21T19:04:32.530944", "MEAN_MOTION": 13.75696245, "ECCENTRICITY": 0.01714117, "INCLINATION": 98.9968, "RA_OF_ASC_NODE": 177.6844, "ARG_OF_PERICENTER": 293.7369, "MEAN_ANOMALY": 80.7962, "EPHEMERIS_TYPE": 0, "CLASSIFICATION_TYPE": "U", "NORAD_CAT_ID": 31062, "ELEMENT_SET_NO": 999, "REV_AT_EPOCH": 94358, "BSTAR": 0.00022693865, "MEAN_MOTION_DOT": 2.01e-06, "MEAN_MOTION_DDOT": 0}, "tle": {"line1": "1 31062U 99025BFG 25355.79482096  .00000201  00000+0  22694-3 0  9990", "line2": "2 31062  98.9968 177.6844 0171411 293.7369  80.7962 13.75696245943583"}}, "geometry": {"type": "Point", "coordinates": [0.3009244142746989, 4.604415443388176]}}, {"type": "Feature", "properties": {"norad_id": 31064, "name": "FENGYUN 1C DEB", "group": "fengyun-1c-debris", "lat": 16.70638536330028, "lon": -22.412045072465816, "alt_km": 699.2023666859986, "timestamp": "2025-12-23T18:59:32.247504+00:00", "meta": {"OBJECT_NAME": "FENGYUN 1C DEB", "OBJECT_ID": "1999-025BFJ", "EPOCH": "2025-12-22T16:43:33.472416", "MEAN_MOTION": 14.22156979, "ECCENTRICITY": 0.02409286, "INCLINATION": 98.5748, "RA_OF_ASC_NODE": 339.1181, "ARG_OF_PERICENTER": 332.6859, "MEAN_ANOMALY": 202.2646, "EPHEMERIS_TYPE": 0, "CLASSIFICATION_TYPE": "U", "NORAD_CAT_ID": 31064, "ELEMENT_SET_NO": 999, "REV_AT_EPOCH": 97396, "BSTAR": 0.00032635852, "MEAN_MOTION_DOT": 9.23e-06, "MEAN_MOTION_DDOT": 0}, "tle": {"line1": "1 31064U 99025BFJ 25356.69691519  .00000923  00000+0  32636-3 0  9992", "line2": "2 31064  98.5748 339.1181 0240928 332.6859 202.2646 14.22156979973966"}}, "geometry": {"type": "Point", "coordinates": [-22.412045072465816, 16.70638536330028]}}, {"type": "Feature", "properties": {"norad_id": 31065, "name": "FENGYUN 1C DEB", "group": "fengyun-1c-debris", "lat": -5.285860831069824, "lon": -164.22653655126976, "alt_km": 826.1608771223273, "timestamp": "2025-12-23T18:59:32.247515+00:00", "meta": {"OBJECT_NAME": "FENGYUN 1C DEB", "OBJECT_ID": "1999-025BFK", "EPOCH": "2025-12-20T07:44:23.606880", "MEAN_MOTION": 14.28204774, "ECCENTRICITY": 0.00348587, "INCLINATION": 98.4646, "RA_OF_ASC_NODE": 13.1998, "ARG_OF_PERICENTER": 9.0765, "MEAN_ANOMALY": 351.1039, "EPHEMERIS_TYPE": 0, "CLASSIFICATION_TYPE": "U", "NORAD_CAT_ID": 31065, "ELEMENT_SET_NO": 999, "REV_AT_EPOCH": 64686, "BSTAR": 0.00062313484, "MEAN_MOTION_DOT": 1.52e-05, "MEAN_MOTION_DDOT": 0}, "tle": {"line1": "1 31065U 99025BFK 25354.32249545  .00001520  00000+0  62313-3 0  9998", "line2": "2 31065  98.4646  13.1998 0034858   9.0765 351.1039 14.28204774646861"}}, "geometry": {"type": "Point", "coordinates": [-164.22653655126976, -5.285860831069824]}}, {"type": "Feature", "properties": {"norad_id": 31068, "name": "FENGYUN 1C DEB", "group": "fengyun-1c-debris", "lat": -11.84461430357612, "lon": 157.67694654069965, "alt_km": 895.3517812506352, "timestamp": "2025-12-23T18:59:32.247526+00:00", "meta": {"OBJECT_NAME": "FENGYUN 1C DEB", "OBJECT_ID": "1999-025BFN", "EPOCH": "2025-12-22T16:32:29.846976", "MEAN_MOTION": 14.09197133, "ECCENTRICITY": 0.01658935, "INCLINATION": 98.6305, "RA_OF_ASC_NODE": 338.4459, "ARG_OF_PERICENTER": 90.14, "MEAN_ANOMALY": 271.878, "EPHEMERIS_TYPE": 0, "CLASSIFICATION_TYPE": "U", "NORAD_CAT_ID": 31068, "ELEMENT_SET_NO": 999, "REV_AT_EPOCH": 96495, "BSTAR": 0.00015236444, "MEAN_MOTION_DOT": 2.6e-06, "MEAN_MOTION_DDOT": 0}, "tle": {"line1": "1 31068U 99025BFN 25356.68923434  .00000260  00000+0  15236-3 0  9990", "line2": "2 31068  98.6305 338.4459 0165893  90.1400 271.8780 14.09197133964957"}}, "geometry": {"type": "Point", "coordinates": [157.67694654069965, -11.84461430357612]}}, {"type": "Feature", "properties": {"norad_id": 31069, "name": "FENGYUN 1C DEB", "group": "fengyun-1c-debris", "lat": -70.53967570938424, "lon": -173.92912429476192, "alt_km": 742.2839791366287, "timestamp": "2025-12-23T18:59:32.247535+00:00", "meta": {"OBJECT_NAME": "FENGYUN 1C DEB", "OBJECT_ID": "1999-025BFP", "EPOCH": "2025-12-23T04:29:34.000512", "MEAN_MOTION": 14.57166659, "ECCENTRICITY": 0.01042421, "INCLINATION": 99.0999, "RA_OF_ASC_NODE": 158.4358, "ARG_OF_PERICENTER": 45.9725, "MEAN_ANOMALY": 315.0001, "EPHEMERIS_TYPE": 0, "CLASSIFICATION_TYPE": "U", "NORAD_CAT_ID": 31069, "ELEMENT_SET_NO": 999, "REV_AT_EPOCH": 98838, "BSTAR": 0.00062269225, "MEAN_MOTION_DOT": 2.967e-05, "MEAN_MOTION_DDOT": 0}, "tle": {"line1": "1 31069U 99025BFP 25357.18719908  .00002967  00000+0  62269-3 0  9990", "line2": "2 31069  99.0999 158.4358 0104242  45.9725 315.0001 14.57166659988381"}}, "geometry": {"type": "Point", "coordinates": [-173.92912429476192, -70.53967570938424]}}, {"type": "Feature", "properties": {"norad_id": 31071, "name": "FENGYUN 1C DEB", "group": "fengyun-1c-debris", "lat": -27.10711775880778, "lon": -108.28608377600776, "alt_km": 692.3575262816794, "timestamp": "2025-12-23T18:59:32.247543+00:00", "meta": {"OBJECT_NAME": "FENGYUN 1C DEB", "OBJECT_ID": "1999-025BFR", "EPOCH": "2025-12-22T10:37:41.952288", "MEAN_MOTION": 14.52706291, "ECCENTRICITY": 0.00560007, "INCLINATION": 99.04, "RA_OF_ASC_NODE": 74.9363, "ARG_OF_PERICENTER": 252.2989, "MEAN_ANOMALY": 107.2086, "EPHEMERIS_TYPE": 0, "CLASSIFICATION_TYPE": "U", "NORAD_CAT_ID": 31071, "ELEMENT_SET_NO": 999, "REV_AT_EPOCH": 65635, "BSTAR": 0.0011447203, "MEAN_MOTION_DOT": 4.739e-05, "MEAN_MOTION_DDOT": 0}, "tle": {"line1": "1 31071U 99025BFR 25356.44284667  .00004739  00000+0  11447-2 0  9990", "line2": "2 31071  99.0400  74.9363 0056000 252.2989 107.2086 14.52706291656352"}}, "geometry": {"type": "Point", "coordinates": [-108.28608377600776, -27.10711775880778]}}, {"type": "Feature", "properties": {"norad_id": 31072, "name": "FENGYUN 1C DEB", "group": "fengyun-1c-debris", "lat": 68.53700979210637, "lon": -20.83831492285381, "alt_km": 649.3192423566234, "timestamp": "2025-12-23T18:59:32.247552+00:00", "meta": {"OBJECT_NAME": "FENGYUN 1C DEB", "OBJECT_ID": "1999-025BFS", "EPOCH": "2025-12-22T05:36:50.483232", "MEAN_MOTION": 14.25515338, "ECCENTRICITY": 0.02103102, "INCLINATION": 99.3319, "RA_OF_ASC_NODE": 2.2271, "ARG_OF_PERICENTER": 70.7103, "MEAN_ANOMALY": 291.669, "EPHEMERIS_TYPE": 0, "CLASSIFICATION_TYPE": "U", "NORAD_CAT_ID": 31072, "ELEMENT_SET_NO": 999, "REV_AT_EPOCH": 96778, "BSTAR": 0.00058124662, "MEAN_MOTION_DOT": 1.68e-05, "MEAN_MOTION_DDOT": 0}, "tle": {"line1": "1 31072U 99025BFS 25356.23391763  .00001680  00000+0  58125-3 0  9991", "line2": "2 31072  99.3319   2.2271 0210310  70.7103 291.6690 14.25515338967785"}}, "geometry": {"type": "Point", "coordinates": [-20.83831492285381, 68.53700979210637]}}]}